{"type": "FeatureCollection", "features": [ {"type": "Feature", "properties": {"norad_id": 34077, "name": "IRIDIUM 33 DEB", "group": "iridium-33-debris", "lat": -73.88917661149004, "lon": -112.3676964351222, "alt_km": 693.2178740431691, "timestamp": "2025-12-04T19:33:59.984959+00:00", "meta": {"OBJECT_NAME": "IRIDIUM 33 DEB", "OBJECT_ID": "1997-051CL", "EPOCH": "2025-12-04T07:15:09.830304", "MEAN_MOTION": 14.64621053, "ECCENTRICITY": 0.0010928, "INCLINATION": 86.3873, "RA_OF_ASC_NODE": 55.2234, "ARG_OF_PERICENTER": 66.0803, "MEAN_ANOMALY": 4.643, "EPHEMERIS_TYPE": 0, "CLASSIFICATION_TYPE": "U", "NORAD_CAT_ID": 34077, "ELEMENT_SET_NO": 999, "REV_AT_EPOCH": 88209, "BSTAR": 0.0046171322, "MEAN_MOTION_DOT": 0.00024632, "MEAN_MOTION_DDOT": 0}, "tle": {"line1": "1 34077U 97051CL  25338.30219711  .00024632  00000+0  46171-2 0  9995", "line2": "2 34077  86.3873  55.2234 0010928  66.0803   4.6430 14.64621053882098"}}, "geometry": {"type": "Point", "coordinates": [-112.3676964351222, -73.88917661149004]}}, {"type": "Feature", "properties": {"norad_id": 34079, "name": "IRIDIUM 33 DEB", "group": "iridium-33-debris", "lat": 75.10300051304796, "lon": 26.041258573859384, "alt_km": 608.7731075196525, "timestamp": "2025-12-04T19:33:59.984968+00:00", "meta": {"OBJECT_NAME": "IRIDIUM 33 DEB", "OBJECT_ID": "1997-051CN", "EPOCH": "2025-12-04T03:17:56.762592", "MEAN_MOTION": 14.83177277, "ECCENTRICITY": 0.00066276, "INCLINATION": 86.3779, "RA_OF_ASC_NODE": 12.5738, "ARG_OF_PERICENTER": 34.6176, "MEAN_ANOMALY": 24.0914, "EPHEMERIS_TYPE": 0, "CLASSIFICATION_TYPE": "U", "NORAD_CAT_ID": 34079, "ELEMENT_SET_NO": 999, "REV_AT_EPOCH": 88850, "BSTAR": 0.0034856602, "MEAN_MOTION_DOT": 0.0002856, "MEAN_MOTION_DDOT": 0}, "tle": {"line1": "1 34079U 97051CN  25338.13746253  .00028560  00000+0  34857-2 0  9996", "line2": "2 34079  86.3779  12.5738 0006627  34.6176  24.0914 14.83177277888505"}}, "geometry": {"type": "Point", "coordinates": [26.041258573859384, 75.10300051304796]}}, {"type": "Feature", "properties": {"norad_id": 34088, "name": "IRIDIUM 33 DEB", "group": "iridium-33-debris", "lat": -52.961328374032576, "lon": 29.558753788632647, "alt_km": 603.238772682831, "timestamp": "2025-12-04T19:33:59.984977+00:00", "meta": {"OBJECT_NAME": "IRIDIUM 33 DEB", "OBJECT_ID": "1997-051CX", "EPOCH": "2025-12-04T03:55:52.243968", "MEAN_MOTION": 14.90715065, "ECCENTRICITY": 0.0005152, "INCLINATION": 86.3857, "RA_OF_ASC_NODE": 34.6625, "ARG_OF_PERICENTER": 208.3378, "MEAN_ANOMALY": 204.601, "EPHEMERIS_TYPE": 0, "CLASSIFICATION_TYPE": "U", "NORAD_CAT_ID": 34088, "ELEMENT_SET_NO": 999, "REV_AT_EPOCH": 88614, "BSTAR": 0.0059019628, "MEAN_MOTION_DOT": 0.00058368, "MEAN_MOTION_DDOT": 0}, "tle": {"line1": "1 34088U 97051CX  25338.16379912  .00058368  00000+0  59020-2 0  9991", "line2": "2 34088  86.3857  34.6625 0005152 208.3378 204.6010 14.90715065886140"}}, "geometry": {"type": "Point", "coordinates": [29.558753788632647, -52.961328374032576]}}, {"type": "Feature", "properties": {"norad_id": 34091, "name": "IRIDIUM 33 DEB", "group": "iridium-33-debris", "lat": 49.99652821651685, "lon": 74.83213590299334, "alt_km": 621.2259352736528, "timestamp": "2025-12-04T19:33:59.984987+00:00", "meta": {"OBJECT_NAME": "IRIDIUM 33 DEB", "OBJECT_ID": "1997-051DA", "EPOCH": "2025-12-04T06:22:03.365472", "MEAN_MOTION": 14.80787166, "ECCENTRICITY": 0.00329957, "INCLINATION": 86.3424, "RA_OF_ASC_NODE": 70.712, "ARG_OF_PERICENTER": 323.9613, "MEAN_ANOMALY": 35.9384, "EPHEMERIS_TYPE": 0, "CLASSIFICATION_TYPE": "U", "NORAD_CAT_ID": 34091, "ELEMENT_SET_NO": 999, "REV_AT_EPOCH": 87741, "BSTAR": 0.013386557, "MEAN_MOTION_DOT": 0.00105581, "MEAN_MOTION_DDOT": 0}, "tle": {"line1": "1 34091U 97051DA  25338.26531673  .00105581  00000+0  13387-1 0  9995", "line2": "2 34091  86.3424  70.7120 0032995 323.9613  35.9384 14.80787166877415"}}, "geometry": {"type": "Point", "coordinates": [74.83213590299334, 49.99652821651685]}}, {"type": "Feature", "properties": {"norad_id": 34097, "name": "IRIDIUM 33 DEB", "group": "iridium-33-debris", "lat": -6.574462906476877, "lon": -174.65525739731797, "alt_km": 835.5789507882846, "timestamp": "2025-12-04T19:33:59.984996+00:00", "meta": {"OBJECT_NAME": "IRIDIUM 33 DEB", "OBJECT_ID": "1997-051DG", "EPOCH": "2025-12-04T01:57:54.018144", "MEAN_MOTION": 14.34672763, "ECCENTRICITY": 0.00835917, "INCLINATION": 86.2004, "RA_OF_ASC_NODE": 5.2294, "ARG_OF_PERICENTER": 30.3184, "MEAN_ANOMALY": 330.2808, "EPHEMERIS_TYPE": 0, "CLASSIFICATION_TYPE": "U", "NORAD_CAT_ID": 34097, "ELEMENT_SET_NO": 999, "REV_AT_EPOCH": 86995, "BSTAR": 0.0025968613, "MEAN_MOTION_DOT": 7.662e-05, "MEAN_MOTION_DDOT": 0}, "tle": {"line1": "1 34097U 97051DG  25338.08187521  .00007662  00000+0  25969-2 0  9991", "line2": "2 34097  86.2004   5.2294 0083591  30.3184 330.2808 14.34672763869956"}}, "geometry": {"type": "Point", "coordinates": [-174.65525739731797, -6.574462906476877]}}, {"type": "Feature", "properties": {"norad_id": 34145, "name": "IRIDIUM 33 DEB", "group": "iridium-33-debris", "lat": -61.64253328397692, "lon": 163.1089056761621, "alt_km": 779.7405857576805, "timestamp": "2025-12-04T19:33:59.985005+00:00", "meta": {"OBJECT_NAME": "IRIDIUM 33 DEB", "OBJECT_ID": "1997-051DY", "EPOCH": "2025-12-04T05:07:56.080128", "MEAN_MOTION": 14.42196317, "ECCENTRICITY": 0.00553495, "INCLINATION": 86.211, "RA_OF_ASC_NODE": 336.324, "ARG_OF_PERICENTER": 120.9354, "MEAN_ANOMALY": 239.7303, "EPHEMERIS_TYPE": 0, "CLASSIFICATION_TYPE": "U", "NORAD_CAT_ID": 34145, "ELEMENT_SET_NO": 999, "REV_AT_EPOCH": 87515, "BSTAR": 0.0021466705, "MEAN_MOTION_DOT": 7.221e-05, "MEAN_MOTION_DDOT": 0}, "tle": {"line1": "1 34145U 97051DY  25338.21384352  .00007221  00000+0  21467-2 0  9991", "line2": "2 34145  86.2110 336.3240 0055349 120.9354 239.7303 14.42196317875159"}}, "geometry": {"type": "Point", "coordinates": [163.1089056761621, -61.64253328397692]}}, {"type": "Feature", "properties": {"norad_id": 34146, "name": "IRIDIUM 33 DEB", "group": "iridium-33-debris", "lat": 46.27650078955603, "lon": -2.801226374344691, "alt_km": 741.3417394399594, "timestamp": "2025-12-04T19:33:59.985014+00:00", "meta": {"OBJECT_NAME": "IRIDIUM 33 DEB", "OBJECT_ID": "1997-051DZ", "EPOCH": "2025-12-04T01:24:47.589696", "MEAN_MOTION": 14.48952534, "ECCENTRICITY": 0.00250019, "INCLINATION": 86.2834, "RA_OF_ASC_NODE": 353.6357, "ARG_OF_PERICENTER": 252.753, "MEAN_ANOMALY": 170.5987, "EPHEMERIS_TYPE": 0, "CLASSIFICATION_TYPE": "U", "NORAD_CAT_ID": 34146, "ELEMENT_SET_NO": 999, "REV_AT_EPOCH": 87981, "BSTAR": 0.0019732729, "MEAN_MOTION_DOT": 7.524e-05, "MEAN_MOTION_DDOT": 0}, "tle": {"line1": "1 34146U 97051DZ  25338.05888414  .00007524  00000+0  19733-2 0  9991", "line2": "2 34146  86.2834 353.6357 0025001 252.7530 170.5987 14.48952534879810"}}, "geometry": {"type": "Point", "coordinates": [-2.801226374344691, 46.27650078955603]}}, {"type": "Feature", "properties": {"norad_id": 34159, "name": "IRIDIUM 33 DEB", "group": "iridium-33-debris", "lat": 61.147042843132475, "lon": 58.26973822455101, "alt_km": 762.7418332884981, "timestamp": "2025-12-04T19:33:59.985023+00:00", "meta": {"OBJECT_NAME": "IRIDIUM 33 DEB", "OBJECT_ID": "1997-051EN", "EPOCH": "2025-12-04T05:55:36.421248", "MEAN_MOTION": 14.38462175, "ECCENTRICITY": 0.00264027, "INCLINATION": 86.3517, "RA_OF_ASC_NODE": 51.862, "ARG_OF_PERICENTER": 317.679, "MEAN_ANOMALY": 42.237, "EPHEMERIS_TYPE": 0, "CLASSIFICATION_TYPE": "U", "NORAD_CAT_ID": 34159, "ELEMENT_SET_NO": 999, "REV_AT_EPOCH": 87837, "BSTAR": 0.00079830442, "MEAN_MOTION_DOT": 2.464e-05, "MEAN_MOTION_DDOT": 0}, "tle": {"line1": "1 34159U 97051EN  25338.24694932  .00002464  00000+0  79830-3 0  9999", "line2": "2 34159  86.3517  51.8620 0026402 317.6790  42.2370 14.38462175878375"}}, "geometry": {"type": "Point", "coordinates": [58.26973822455101, 61.147042843132475]}}, {"type": "Feature", "properties": {"norad_id": 34350, "name": "IRIDIUM 33 DEB", "group": "iridium-33-debris", "lat": -73.37767149528007, "lon": -161.3324463235803, "alt_km": 749.2206520299078, "timestamp": "2025-12-04T19:33:59.985032+00:00", "meta": {"OBJECT_NAME": "IRIDIUM 33 DEB", "OBJECT_ID": "1997-051ES", "EPOCH": "2025-12-04T01:54:53.906976", "MEAN_MOTION": 14.45357099, "ECCENTRICITY": 0.00219337, "INCLINATION": 86.3281, "RA_OF_ASC_NODE": 6.5649, "ARG_OF_PERICENTER": 162.4763, "MEAN_ANOMALY": 226.5026, "EPHEMERIS_TYPE": 0, "CLASSIFICATION_TYPE": "U", "NORAD_CAT_ID": 34350, "ELEMENT_SET_NO": 999, "REV_AT_EPOCH": 88168, "BSTAR": 0.00057236591, "MEAN_MOTION_DOT": 2.036e-05, "MEAN_MOTION_DDOT": 0}, "tle": {"line1": "1 34350U 97051ES  25338.07979059  .00002036  00000+0  57237-3 0  9991", "line2": "2 34350  86.3281   6.5649 0021933 162.4763 226.5026 14.45357099881683"}}, "geometry": {"type": "Point", "coordinates": [-161.3324463235803, -73.37767149528007]}}, {"type": "Feature", "properties": {"norad_id": 34366, "name": "IRIDIUM 33 DEB", "group": "iridium-33-debris", "lat": -24.390367362861483, "lon": 51.110136724158544, "alt_km": 733.6773813982527, "timestamp": "2025-12-04T19:33:59.985041+00:00", "meta": {"OBJECT_NAME": "IRIDIUM 33 DEB", "OBJECT_ID": "1997-051FJ", "EPOCH": "2025-12-04T06:46:15.002976", "MEAN_MOTION": 14.53935421, "ECCENTRICITY": 0.00218081, "INCLINATION": 86.3708, "RA_OF_ASC_NODE": 52.9909, "ARG_OF_PERICENTER": 166.8355, "MEAN_ANOMALY": 259.9318, "EPHEMERIS_TYPE": 0, "CLASSIFICATION_TYPE": "U", "NORAD_CAT_ID": 34366, "ELEMENT_SET_NO": 999, "REV_AT_EPOCH": 88059, "BSTAR": 0.0030543138, "MEAN_MOTION_DOT": 0.00012927, "MEAN_MOTION_DDOT": 0}, "tle": {"line1": "1 34366U 97051FJ  25338.28211809  .00012927  00000+0  30543-2 0  9993", "line2": "2 34366  86.3708  52.9909 0021808 166.8355 259.9318 14.53935421880597"}}, "geometry": {"type": "Point", "coordinates": [51.110136724158544, -24.390367362861483]}}]}